ONEWEB-0207             
1 48242U 21031AJ  25170.47694942 -.00000116  00000+0 -34644-3 0  9990
2 48242  87.9031   1.8485 0001746  81.8266 278.3062 13.14502415200641
ONEWEB-0208             
1 48243U 21031AK  25170.23036327  .00000105  00000+0  24897-3 0  9997
2 48243  87.9034   1.9123 0002036  88.0483 272.0880 13.14501659200624
ONEWEB-0200             
1 48244U 21031AL  25170.27001151 -.00000045  00000+0 -15582-3 0  9995
2 48244  87.9028   1.8960 0001950  88.1458 271.9895 13.14502078200555
ONEWEB-0217             
1 48245U 21031AM  25170.28585978  .00000281  00000+0  72369-3 0  9997
2 48245  87.9030   1.8776 0002156  89.8099 270.3278 13.14501143200507
ONEWEB-0211             
1 48767U 21045A   25170.40661759 -.00000093  00000+0 -27988-3 0  9997
2 48767  87.9049 331.4666 0002075 101.6781 258.4582 13.16080202196720
ONEWEB-0223             
1 48768U 21045B   25170.39980581 -.00000094  00000+0 -28380-3 0  9991
2 48768  87.9050 331.5082 0002157 105.9885 254.1483 13.15547965196703
ONEWEB-0230             
1 48769U 21045C   25170.44734060  .00000166  00000+0  40557-3 0  9995
2 48769  87.9035 331.5419 0001712  96.8326 263.3000 13.15548707196976
ONEWEB-0237             
1 48770U 21045D   25169.97991807  .00000120  00000+0  28421-3 0  9993
2 48770  87.9059 331.6118 0002014 104.6177 255.5176 13.15547875196634
